STARLINK-5594           
1 55742U 23028B   25309.33336806 -.00046004  00000+0 -38705-2 0  9999
2 55742  70.0014 198.1428 0002982 269.3541 293.5321 14.98355337  5784
STARLINK-5602           
1 55743U 23028C   25309.09965398 -.00001078  00000+0 -82542-4 0  9999
2 55743  70.0005 198.7578 0002795 272.6229  87.4610 14.98330807147377
STARLINK-5601           
1 55744U 23028D   25309.09564424 -.00001145  00000+0 -88188-4 0  9992
2 55744  69.9998 198.7435 0002621 270.8165  89.2694 14.98328689147372
STARLINK-5579           
1 55746U 23028F   25309.06626572  .00001518  00000+0  13503-3 0  9994
2 55746  70.0035 198.6427 0002151 268.7994  91.2919 14.98317012147374
STARLINK-5539           
1 55747U 23028G   25309.08295033 -.00001793  00000+0 -14248-3 0  9995
2 55747  69.9986 198.6987 0002569 280.3450  79.7420 14.98334167147376
STARLINK-5580           
1 55748U 23028H   25309.07877841 -.00000057  00000+0  30473-5 0  9999
2 55748  69.9999 198.6830 0002637 260.7426  99.3435 14.98336846147379
STARLINK-5573           
1 55750U 23028K   25309.07460552  .00000387  00000+0  40239-4 0  9994
2 55750  70.0002 198.6683 0002694 270.6531  89.4319 14.98333342147375
STARLINK-5577           
1 55751U 23028L   25309.08715181 -.00002845  00000+0 -23089-3 0  9993
2 55751  70.0004 198.7121 0002535 274.0678  86.0191 14.98311769147370
STARLINK-5613           
1 55752U 23028M   25309.11632402 -.00001282  00000+0 -99632-4 0  9994
2 55752  69.9997 198.4130 0002900 270.7826  89.3001 14.98329261147383
STARLINK-5617           
1 55753U 23028N   25309.13318276 -.00000934  00000+0 -70455-4 0  9992
2 55753  69.9995 198.4728 0002861 273.4230  86.6602 14.98330503147388
STARLINK-5612           
1 55754U 23028P   25309.12467969  .00002698  00000+0  23381-3 0  9998
2 55754  69.9991 198.4417 0003075 268.6731  91.4076 14.98331288147380
STARLINK-5619           
1 55755U 23028Q   25309.11230324  .00001247  00000+0  11228-3 0  9997
2 55755  69.9988 198.3924 0002891 270.8754  89.2073 14.98346379147383
STARLINK-5614           
1 55756U 23028R   25309.10798025 -.00001175  00000+0 -90717-4 0  9997
2 55756  69.9994 198.3831 0002355 269.7588  90.3301 14.98333411147385
STARLINK-5544           
1 55757U 23028S   25309.12884998 -.00001124  00000+0 -86466-4 0  9995
2 55757  70.0006 198.4566 0002561 270.8916  89.1950 14.98328960147385
STARLINK-5072           
1 55758U 23028T   25309.12050807  .00002206  00000+0  19260-3 0  9997
2 55758  69.9990 198.4267 0002925 269.7340  90.3484 14.98328850147389
STARLINK-5532           
1 55760U 23028V   25309.10380143 -.00001297  00000+0 -10092-3 0  9992
2 55760  69.9998 198.3692 0002743 269.8562  90.2283 14.98328253147389
STARLINK-5611           
1 55761U 23028W   25309.01614824 -.00000400  00000+0 -25714-4 0  9992
2 55761  69.9994 178.9884 0002338 271.8843  88.2048 14.98327118147855
STARLINK-5603           
1 55762U 23028X   25309.07020968 -.00000210  00000+0 -98444-5 0  9999
2 55762  69.9988 178.7741 0002688 282.4267  77.6591 14.98339956147864
STARLINK-5593           
1 55763U 23028Y   25309.11214499 -.00000770  00000+0 -56741-4 0  9993
2 55763  70.0000 198.3980 0002694 272.1261  87.9589 14.98333371147386
STARLINK-5499           
1 55764U 23028Z   25309.07438358 -.00000276  00000+0 -15317-4 0  9996
2 55764  69.9987 178.7893 0002650 267.4420  92.6435 14.98331221147867
STARLINK-5595           
1 55765U 23028AA  25309.01179414 -.00000507  00000+0 -34701-4 0  9991
2 55765  69.9988 178.9728 0002904 269.0843  90.9983 14.98332052147858
STARLINK-5599           
1 55766U 23028AB  25309.05350873 -.00001643  00000+0 -12991-3 0  9994
2 55766  69.9992 178.7152 0002832 271.5720  88.5115 14.98336559147862
STARLINK-5606           
1 55767U 23028AC  25309.08274887 -.00001385  00000+0 -10836-3 0  9997
2 55767  69.9991 178.8185 0002760 269.7090  90.3752 14.98322740147841
STARLINK-5584           
1 55769U 23028AE  25309.06186088 -.00000611  00000+0 -43458-4 0  9990
2 55769  69.9989 178.7447 0002782 269.1830  90.9010 14.98330133147860
STARLINK-5557           
1 55770U 23028AF  25309.05772805 -.00004592  00000+0 -37768-3 0  9997
2 55770  69.9994 178.7299 0001765 268.7997  91.2959 14.98296454147865
STARLINK-5591           
1 55771U 23028AG  25309.04932443  .00000909  00000+0  83917-4 0  9997
2 55771  69.9986 178.7002 0002750 271.7762  88.3082 14.98342484147867
STARLINK-5835           
1 55772U 23028AH  25309.09957632  .00001237  00000+0  11141-3 0  9994
2 55772  69.9991 178.4741 0002243 276.4514  83.6390 14.98327837147871
STARLINK-5833           
1 55773U 23028AJ  25309.19955434 -.00000236  00000+0 -11964-4 0  9998
2 55773  69.9987 178.4200 0002807 269.4577  90.6260 14.98330694147884
STARLINK-5812           
1 55774U 23028AK  25309.04516009  .00000452  00000+0  45678-4 0  9991
2 55774  69.9971 178.6848 0003374 270.9757  89.1015 14.98344035147868
STARLINK-5809           
1 55775U 23028AL  25309.04097030  .00005823  00000+0  49510-3 0  9995
2 55775  69.9981 178.6737 0002740 275.5526  84.5320 14.98353111147861
STARLINK-5810           
1 55776U 23028AM  25309.33336806  .00938284  00000+0  52686-2 0  9998
2 55776  69.9961 169.7274 0003591 266.8802  18.1027 15.76544080  5776
STARLINK-5814           
1 55777U 23028AN  25309.03264989 -.00002001  00000+0 -15995-3 0  9992
2 55777  69.9963 178.6415 0002233 261.1396  98.9510 14.98334012147868
STARLINK-5816           
1 55778U 23028AP  25309.02846686 -.00000445  00000+0 -29500-4 0  9990
2 55778  70.0005 178.6270 0002563 274.1792  85.9074 14.98329445147863
STARLINK-5817           
1 55779U 23028AQ  25308.86550092  .00000065  00000+0  13277-4 0  9995
2 55779  69.9975 158.9813 0002880 266.4602  93.6228 14.98335207148330
STARLINK-5819           
1 55780U 23028AR  25309.02429039 -.00000106  00000+0 -10575-5 0  9999
2 55780  69.9999 178.6123 0002641 269.4206  90.6651 14.98329237147869
STARLINK-5820           
1 55781U 23028AS  25309.03681628 -.00000919  00000+0 -69248-4 0  9997
2 55781  69.9994 178.6894 0002684 270.1878  89.8973 14.98330082147868
STARLINK-5826           
1 55782U 23028AT  25308.32743935  .00000476  00000+0  47667-4 0  9996
2 55782  69.9983 160.7204 0002885 270.2499  89.8330 14.98330272148248
STARLINK-5825           
1 55783U 23028AU  25308.32727314  .00000101  00000+0  16226-4 0  9992
2 55783  69.9983 160.7183 0002923 272.0549  88.0275 14.98330366148247
STARLINK-5797           
1 55784U 23028AV  25308.84484025  .00001525  00000+0  13559-3 0  9995
2 55784  69.9996 159.3151 0003064 271.5728  88.5080 14.98324174148329
STARLINK-5818           
1 55785U 23028AW  25308.99070148 -.00000532  00000+0 -36767-4 0  9995
2 55785  69.9988 159.0206 0002869 271.1618  88.9212 14.98329778148343
STARLINK-5823           
1 55786U 23028AX  25308.84469991  .00006012  00000+0  51223-3 0  9998
2 55786  69.9960 159.3146 0001586 284.5274  75.5709 14.98254577148326
STARLINK-5811           
1 55787U 23028AY  25308.98652604 -.00000393  00000+0 -25150-4 0  9998
2 55787  69.9990 159.0059 0002961 270.8430  89.2390 14.98330530148344
STARLINK-5804           
1 55788U 23028AZ  25308.98235273 -.00000438  00000+0 -28880-4 0  9991
2 55788  69.9981 158.9919 0002907 270.5186  89.5640 14.98329732148346
STARLINK-5815           
1 55789U 23028BA  25309.02406751  .00000406  00000+0  41794-4 0  9991
2 55789  69.9976 158.7354 0002735 267.4407  92.6439 14.98332980148353
STARLINK-5813           
1 55790U 23028BB  25308.29406153  .00000856  00000+0  79490-4 0  9990
2 55790  69.9979 160.6032 0002575 262.9627  97.1239 14.98335028148241
STARLINK-5807           
1 55791U 23028BC  25308.84048498 -.00001048  00000+0 -80072-4 0  9990
2 55791  69.9957 159.2993 0002812 271.2936  88.7901 14.98324936148325
STARLINK-5856           
1 55914U 23037A   25309.18378703  .00010564  00000+0  89211-3 0  9994
2 55914  70.0022 258.5274 0002459 257.0779 103.0105 14.98319002145521
STARLINK-5859           
1 55915U 23037B   25309.16710309 -.00000052  00000+0  34032-5 0  9990
2 55915  69.9991 258.4699 0002896 276.1278  83.9551 14.98336766145522
STARLINK-5796           
1 55916U 23037C   25309.24638816 -.00001907  00000+0 -15207-3 0  9994
2 55916  70.0011 258.3467 0002241 254.9950 105.0962 14.98326510144848
STARLINK-5855           
1 55917U 23037D   25309.33336806  .00312526  42046-4  80591-3 0  9998
2 55917  69.9601 166.0602 0005345 225.0589 226.0986 15.94982898  6023
STARLINK-5867           
1 55918U 23037E   25309.24221078 -.00000760  00000+0 -55924-4 0  9991
2 55918  69.9996 258.3301 0002655 270.0050  90.0805 14.98328095144844
STARLINK-5871           
1 55919U 23037F   25309.16727655  .00000342  00000+0  36473-4 0  9997
2 55919  70.0021 258.4693 0001772 274.1551  85.9406 14.98317420144831
STARLINK-5862           
1 55920U 23037G   25309.23782980 -.00002387  00000+0 -19239-3 0  9992
2 55920  69.9999 238.4365 0002977 270.7663  89.3155 14.98315774145337
STARLINK-5861           
1 55921U 23037H   25309.28392367 -.00000783  00000+0 -57825-4 0  9996
2 55921  69.9990 258.0743 0002776 268.1331  91.9510 14.98329198144852
STARLINK-5863           
1 55922U 23037J   25309.22134325 -.00000591  00000+0 -41715-4 0  9997
2 55922  69.9990 258.2570 0002775 265.8464  94.2378 14.98324964144846
STARLINK-5854           
1 55923U 23037K   25309.22551968 -.00001123  00000+0 -86373-4 0  9995
2 55923  70.0004 258.2715 0002447 275.9914  84.0966 14.98320599144845
STARLINK-5849           
1 55924U 23037L   25309.16688039  .00001083  00000+0  98534-4 0  9994
2 55924  70.0005 238.5875 0002716 271.4158  88.6690 14.98325923145329
STARLINK-5922           
1 55925U 23037M   25309.27975503  .00003842  00000+0  32965-3 0  9992
2 55925  69.9999 258.0583 0002644 276.0531  84.0327 14.98329361144852
STARLINK-5921           
1 55926U 23037N   25309.22528901 -.00000083  00000+0  84830-6 0  9990
2 55926  70.0002 238.3930 0002416 271.5358  88.5524 14.98326125145339
